[{"OBJECT_NAME":"KONDOR-FKA NO. 1","OBJECT_ID":"2023-074A","EPOCH":"2026-03-07T10:13:03.575712","MEAN_MOTION":15.19772289,"ECCENTRICITY":0.00017305,"INCLINATION":97.4394,"RA_OF_ASC_NODE":262.4533,"ARG_OF_PERICENTER":84.6258,"MEAN_ANOMALY":275.5174,"EPHEMERIS_TYPE":0,"CLASSIFICATION_TYPE":"U","NORAD_CAT_ID":56756,"ELEMENT_SET_NO":999,"REV_AT_EPOCH":15423,"BSTAR":0.0003518818,"MEAN_MOTION_DOT":7.463e-5,"MEAN_MOTION_DDOT":0},{"OBJECT_NAME":"PHI 1","OBJECT_ID":"2025-276DP","EPOCH":"2026-03-09T17:39:12.133440","MEAN_MOTION":15.19973113,"ECCENTRICITY":0.00029619,"INCLINATION":97.4203,"RA_OF_ASC_NODE":144.0831,"ARG_OF_PERICENTER":121.0034,"MEAN_ANOMALY":239.1492,"EPHEMERIS_TYPE":0,"CLASSIFICATION_TYPE":"U","NORAD_CAT_ID":66775,"ELEMENT_SET_NO":999,"REV_AT_EPOCH":1533,"BSTAR":0.00038773813,"MEAN_MOTION_DOT":8.281e-5,"MEAN_MOTION_DDOT":0}]
